CALSPHERE 1             
1 00900U 64063C   18063.54227385  .00000234  00000-0  24273-3 0  9992
2 00900  90.1470  15.3672 0029059  50.8825  71.5617 13.73047352655737
CALSPHERE 2             
1 00902U 64063E   18062.88995312  .00000023  00000-0  21046-4 0  9994
2 00902  90.1541  17.7235 0018963  20.9038  37.0606 13.52658208446991
LCS 1                   
1 01361U 65034C   18062.72951081  .00000008  00000-0 -35925-4 0  9996
2 01361  32.1387 165.1947 0013286 336.9351  23.0550  9.89293621910419
TEMPSAT 1               
1 01512U 65065E   18063.19436542 -.00000001  00000-0 -22799-4 0  9999
2 01512  89.8307 237.9149 0071689 107.6132   7.9562 13.33410210556645
CALSPHERE 4(A)          
1 01520U 65065H   18063.55878887  .00000054  00000-0  86981-4 0  9999
2 01520  90.0717 124.7263 0069218   1.1407 131.8232 13.35755111559010
OPS 5712 (P/L 160)      
1 02826U 67053A   18062.91418457  .00000499  00000-0  14998-3 0  9991
2 02826  69.9302 355.3946 0004309 352.9518   7.1553 14.48244163625789
OPS 5712 (P/L 153)      
1 02874U 67053H   18063.22333894 -.00000004  00000-0  35406-4 0  9991
2 02874  69.9732 119.5655 0007375 187.8253 172.2739 13.96306361584665
SURCAL 150B             
1 02909U 67053J   18062.96532161  .00000608  00000-0  13858-3 0  9993
2 02909  69.9480  56.5738 0002278 191.9282 168.1804 14.60631202634683
RIGIDSPHERE 2 (LCS 4)   
1 05398U 71067E   18063.16084392  .00000143  00000-0  43674-4 0  9993
2 05398  87.6174  94.8289 0064830 147.8106 212.7075 14.33670315440036
